[{"OBJECT_NAME":"ATHENA EPIC","OBJECT_ID":"2025-154C","EPOCH":"2026-03-09T17:44:05.751744","MEAN_MOTION":14.93726693,"ECCENTRICITY":0.00058305,"INCLINATION":97.6779,"RA_OF_ASC_NODE":134.8687,"ARG_OF_PERICENTER":203.8388,"MEAN_ANOMALY":156.2563,"EPHEMERIS_TYPE":0,"CLASSIFICATION_TYPE":"U","NORAD_CAT_ID":64871,"ELEMENT_SET_NO":999,"REV_AT_EPOCH":3416,"BSTAR":0.00033901039,"MEAN_MOTION_DOT":3.534e-5,"MEAN_MOTION_DDOT":0},{"OBJECT_NAME":"ELECTRON KICK STAGE R\/B","OBJECT_ID":"2025-028A","EPOCH":"2026-03-09T17:13:06.018528","MEAN_MOTION":14.88776809,"ECCENTRICITY":0.00403458,"INCLINATION":97.9006,"RA_OF_ASC_NODE":129.2142,"ARG_OF_PERICENTER":174.9077,"MEAN_ANOMALY":185.2558,"EPHEMERIS_TYPE":0,"CLASSIFICATION_TYPE":"U","NORAD_CAT_ID":62928,"ELEMENT_SET_NO":999,"REV_AT_EPOCH":5854,"BSTAR":0.00040796816,"MEAN_MOTION_DOT":3.817e-5,"MEAN_MOTION_DDOT":0}]
